OTTER                   
1 62623U 25009Q   26068.72300813  .00012198  00000+0  45151-3 0  9990
2 62623  97.4065 151.3812 0003572 310.7710  49.3219 15.27809545 63721
STARLINK-34851          
1 66447U 25259AB  26068.93316712  .00024322  00000+0  88990-3 0  9993
2 66447  43.0025 273.3864 0001861 268.9338  91.1300 15.27600809 19418
